GLOBALSTAR M068         
1 32266U 07048D   24237.19820774 -.00000042  00000+0  34354-3 0  9992
2 32266  51.9883 127.5613 0000507 154.9208 343.9953 12.62797354780323
GLOBALSTAR M079         
1 37188U 10054A   24237.22754007 -.00000069  00000+0  19400-3 0  9994
2 37188  52.0062 323.7819 0000534  85.1710 293.2735 12.62263087639636
GLOBALSTAR M074         
1 37189U 10054B   24236.54001707 -.00000061  00000+0  23966-3 0  9995
2 37189  52.0041 325.2425 0000607 112.9739 260.1160 12.62271762639471
GLOBALSTAR M076         
1 37190U 10054C   24237.20098049 -.00000068  00000+0  19833-3 0  9991
2 37190  52.0049 323.3773 0000923  90.0991 286.0434 12.62255631639639
GLOBALSTAR M077         
1 37191U 10054D   24236.39498928 -.00000075  00000+0  15871-3 0  9997
2 37191  52.0066 282.6005 0000439 120.7907 252.1974 12.62262999639542
GLOBALSTAR M075         
1 37192U 10054E   24236.76779101 -.00000078  00000+0  14638-3 0  9997
2 37192  51.9974   7.1145 0000689  94.2492  53.5941 12.62263259638811
GLOBALSTAR M073         
1 37193U 10054F   24236.61400994 -.00000075  00000+0  16145-3 0  9995
2 37193  52.0053 281.1784 0000492 103.0894  65.0733 12.62268624640251
GLOBALSTAR M083         
1 37739U 11033A   24236.54433542 -.00000104  00000+0 -29250-5 0  9993
2 37739  51.9843 230.5247 0000151  20.6584 132.0216 12.62263523609266
GLOBALSTAR M088         
1 37740U 11033B   24237.47198566 -.00000073  00000+0  17208-3 0  9994
2 37740  51.9729 133.4395 0000607  40.8803 129.8431 12.62266531605216
GLOBALSTAR M091         
1 37741U 11033C   24236.37709054 -.00000078  00000+0  14363-3 0  9997
2 37741  51.9993  99.7998 0000593  42.2758 128.8531 12.62266129605574
GLOBALSTAR M085         
1 37742U 11033D   24237.52139674 -.00000107  00000+0 -17299-4 0  9997
2 37742  51.9877  47.6137 0000631  71.0384 323.9056 12.62264723606727
GLOBALSTAR M081         
1 37743U 11033E   24237.01920332 -.00000095  00000+0  46343-4 0  9998
2 37743  51.9967  51.7471 0000861  61.3078  90.1762 12.62268422606695
GLOBALSTAR M089         
1 37744U 11033F   24237.51784236 -.00000093  00000+0  60010-4 0  9990
2 37744  51.9955   4.5156 0001085  95.4533 341.4608 12.62267314607479
GLOBALSTAR M084         
1 38040U 11080A   24236.35675773 -.00000098  00000+0  34429-4 0  9998
2 38040  51.9983 235.1799 0000503 107.7047  31.5624 12.62266049585054
GLOBALSTAR M080         
1 38041U 11080B   24237.18829536 -.00000097  00000+0  36633-4 0  9997
2 38041  52.0036 234.1508 0000654  85.7408 354.0683 12.62264510585426
GLOBALSTAR M082         
1 38042U 11080C   24237.18716926 -.00000088  00000+0  90421-4 0  9991
2 38042  52.0059 189.5676 0000273 292.9501  81.7798 12.62265297586160
GLOBALSTAR M092         
1 38043U 11080D   24237.50743385 -.00000085  00000+0  10622-3 0  9998
2 38043  52.0076 278.9567 0000489 127.4141  23.5332 12.62265643584692
GLOBALSTAR M090         
1 38044U 11080E   24236.61469927 -.00000085  00000+0  10490-3 0  9990
2 38044  51.9870 185.5021 0000223   4.6652 167.2241 12.62266350586075
GLOBALSTAR M086         
1 38045U 11080F   24236.64074516 -.00000083  00000+0  11659-3 0  9996
2 38045  51.9880 185.9498 0001240  27.6540 143.3642 12.62265894586083
GLOBALSTAR M097         
1 39072U 13005A   24237.34267731 -.00000088  00000+0  88697-4 0  9999
2 39072  52.0048  98.0614 0000742  47.7868 312.3061 12.62269854533409
GLOBALSTAR M093         
1 39073U 13005B   24236.99894469 -.00000083  00000+0  11388-3 0  9991
2 39073  51.9809  92.8820 0000721  43.6145 316.4778 12.62263241533352
GLOBALSTAR M094         
1 39074U 13005C   24236.68235654 -.00000089  00000+0  80373-4 0  9990
2 39074  51.9983   7.9308 0000631  76.2426 283.8511 12.62267051534826
GLOBALSTAR M096         
1 39075U 13005D   24237.17070600 -.00000103  00000+0  52629-5 0  9995
2 39075  52.0079  54.7265 0000676  56.8248 303.2683 12.62269075534131
GLOBALSTAR M078         
1 39076U 13005E   24237.46095165 -.00000024  00000+0  44706-3 0  9998
2 39076  51.9866 138.7574 0000403 241.7579 118.3247 12.62275650532652
GLOBALSTAR M095         
1 39077U 13005F   24237.40816454 -.00000064  00000+0  22315-3 0  9991
2 39077  51.9794 136.2625 0000465 344.5305  15.5547 12.62263652532650
GLOBALSTAR M087         
1 52888U 22064A   24236.65803762 -.00000057  00000+0  13613-3 0  9998
2 52888  51.9776 333.1132 0009641 172.2288 187.8763 13.37582720106559
